OBJECT_NAME,OBJECT_ID,EPOCH,MEAN_MOTION,ECCENTRICITY,INCLINATION,RA_OF_ASC_NODE,ARG_OF_PERICENTER,MEAN_ANOMALY,EPHEMERIS_TYPE,CLASSIFICATION_TYPE,NORAD_CAT_ID,ELEMENT_SET_NO,REV_AT_EPOCH,BSTAR,MEAN_MOTION_DOT,MEAN_MOTION_DDOT
DMSP 5D-3 F16 (USA 172),2003-048A,2026-06-16T14:36:40.185216,14.14483183,.00077334,98.9890,191.4333,141.7493,330.7122,0,U,28054,999,16940,.19246681E-4,-.8E-7,0
METEOSAT-9 (MSG-2),2005-049B,2026-06-15T20:07:12.874944,1.00271428,.00015787,9.3585,54.1816,343.5552,213.8225,0,U,28912,999,698,0,.118E-5,0
DMSP 5D-3 F17 (USA 191),2006-050A,2026-06-16T14:29:46.108896,14.14993055,.00111835,98.7378,174.1860,60.9164,299.3129,0,U,29522,999,1234,.24815107E-4,.5E-7,0
FENGYUN 3A,2008-026A,2026-06-16T13:17:40.848000,14.19570994,.00095676,98.6883,108.3989,125.3283,234.8789,0,U,32958,999,93531,.43321277E-4,.48E-6,0
GOES 14,2009-033A,2026-06-16T13:41:22.217856,1.00110976,.00017388,1.6889,83.0498,11.3263,157.9899,0,U,35491,999,658,0,-.292E-5,0
DMSP 5D-3 F18 (USA 210),2009-057A,2026-06-16T13:48:29.950560,14.14896430,.00098873,98.9037,148.3458,251.5205,108.4894,0,U,35951,999,85950,.13623679E-3,.218E-5,0
EWS-G2 (GOES 15),2010-008A,2026-06-16T13:19:05.043072,1.00275917,.00054505,1.2764,82.8686,42.7522,42.6897,0,U,36411,999,5963,0,.15E-6,0
COMS 1,2010-032A,2026-06-16T00:32:29.743872,0.99162472,.0011457,4.8022,75.3676,11.7530,263.3984,0,U,36744,999,5107,0,.42E-6,0
FENGYUN 3B,2010-059A,2026-06-16T14:34:12.843840,14.14841962,.0021835,98.9620,213.6192,185.5976,288.9930,0,U,37214,999,80734,.7572301E-4,.101E-5,0
SUOMI NPP,2011-061A,2026-06-16T15:15:22.992192,14.19517222,.00015653,98.7953,108.5155,8.1641,351.9560,0,U,37849,999,75836,.44552977E-4,.5E-6,0
METEOSAT-10 (MSG-3),2012-035B,2026-06-15T21:37:03.141984,1.00276584,.00014525,4.6688,61.0268,328.0735,199.6782,0,U,38552,999,5084,0,-.6E-7,0
METOP-B,2012-049A,2026-06-16T13:20:47.305248,14.21432598,.00022755,98.6505,219.0679,21.3285,338.7987,0,U,38771,999,71317,.61006602E-4,.9E-6,0
INSAT-3D,2013-038B,2026-06-16T15:27:12.254976,1.00269377,.00005616,1.9252,82.5469,310.9032,232.7718,0,U,39216,999,4707,0,-.342E-5,0
FENGYUN 3C,2013-052A,2026-06-16T14:52:28.451136,14.15754870,.00152879,98.4986,141.5206,29.1858,331.0168,0,U,39260,999,65848,.52115871E-4,.61E-6,0
METEOR-M 2,2014-037A,2026-06-16T15:40:08.285088,14.21459824,.00068025,98.5109,143.4101,45.6406,314.5328,0,U,40069,999,61924,-.11902726E-3,-.302E-5,0
HIMAWARI-8,2014-060A,2026-06-16T13:40:59.753856,1.00271778,.00009896,0.0166,359.5441,89.0904,162.1176,0,U,40267,999,4275,0,-.277E-5,0
FENGYUN 2G,2014-090A,2026-06-16T15:12:03.014208,1.00272404,.00040594,5.6372,72.8203,156.6698,3.1046,0,U,40367,999,4199,0,-.308E-5,0
METEOSAT-11 (MSG-4),2015-034A,2026-06-16T06:13:00.668928,1.00280081,.00017503,3.1990,71.1157,11.1285,285.1801,0,U,40732,999,720,0,.63E-6,0
ELEKTRO-L 2,2015-074A,2026-06-16T15:18:31.243968,1.00270425,.00009721,6.6931,70.5258,242.2635,167.2330,0,U,41105,999,3850,0,-.124E-5,0
SENTINEL-3A,2016-011A,2026-06-16T14:02:57.379776,14.26739852,.00014006,98.6249,234.9777,102.4098,257.7239,0,U,41335,999,53797,.56879315E-4,.94E-6,0
INSAT-3DR,2016-054A,2026-06-16T13:21:57.266784,1.00270847,.00106169,0.1050,86.4161,187.4049,265.4636,0,U,41752,999,3581,0,-.78E-6,0
HIMAWARI-9,2016-064A,2026-06-16T13:40:59.753856,1.00270792,.00009002,0.0207,275.9514,215.0227,119.8759,0,U,41836,999,3520,0,-.277E-5,0
GOES 16,2016-071A,2026-06-16T11:54:38.688768,1.00270963,.00002168,0.3397,85.5055,304.5214,308.7064,0,U,41866,999,3509,0,-.93E-6,0
FENGYUN 4A,2016-077A,2026-06-16T15:51:06.515712,1.00268738,.00087087,2.3208,80.2817,153.3649,32.8183,0,U,41882,999,3492,0,-.36E-5,0
CYGFM05,2016-078A,2026-06-16T12:54:54.474336,15.56647841,.00069204,34.9567,264.8883,144.6917,215.4267,0,U,41884,999,52865,.24871083E-3,.18323E-3,0
CYGFM04,2016-078B,2026-06-16T13:47:32.758080,15.61485848,.0006598,34.9314,232.3673,189.8115,170.2483,0,U,41885,999,52890,.26669318E-3,.23651E-3,0
CYGFM02,2016-078C,2026-06-16T13:50:13.215840,15.64470618,.00076264,34.9393,226.9084,190.6958,169.3607,0,U,41886,999,52907,.27656356E-3,.27611E-3,0
CYGFM01,2016-078D,2026-06-16T14:11:22.532064,15.57326668,.00067079,34.9397,265.5986,138.6965,221.4267,0,U,41887,999,52861,.26120989E-3,.19746E-3,0
CYGFM08,2016-078E,2026-06-16T13:14:30.077664,15.59991626,.00082783,34.9423,245.4563,171.1502,188.9370,0,U,41888,999,52887,.26092769E-3,.21847E-3,0
CYGFM07,2016-078G,2026-06-16T13:47:51.838656,15.60091379,.00070297,34.9435,233.6447,188.5559,171.5048,0,U,41890,999,52890,.25608022E-3,.21512E-3,0
CYGFM03,2016-078H,2026-06-16T13:06:06.662016,15.60083999,.00064113,34.9391,235.7754,175.8726,184.2053,0,U,41891,999,52887,.2579266E-3,.21657E-3,0
